COSMOS 2503             
1 40420U 15009A   26068.69626972  .00002817  00000+0  19590-3 0  9998
2 40420  97.8437 123.7175 0015321 225.7450 134.2520 15.06275973603958
STARLINK-5726           
1 55608U 23020AR  26068.13202028  .00001819  00000+0  14968-3 0  9990
2 55608  43.0058 354.8477 0001673 265.2776  94.7876 15.02536254168982
